{
 "type": "FeatureCollection",
 "_comment": "GENERATED by scripts/build-waterways.py. Hand-drawn corridors live in waterways-manual.geojson and are copied in here; edit that file, not this one.",
 "features": [
  {
   "type": "Feature",
   "properties": {
    "port": "Hamburg",
    "name": "Hamburg - Lower Elbe",
    "halfWidthKm": 1.2
   },
   "geometry": {
    "type": "LineString",
    "coordinates": [
     [
      10.0051,
      53.5395
     ],
     [
      9.934,
      53.543
     ],
     [
      9.8,
      53.56
     ],
     [
      9.66,
      53.59
     ],
     [
      9.55,
      53.63
     ],
     [
      9.39,
      53.73
     ],
     [
      9.24,
      53.83
     ],
     [
      9.14,
      53.89
     ],
     [
      8.97,
      53.89
     ],
     [
      8.8,
      53.88
     ],
     [
      8.72,
      53.87
     ],
     [
      8.55,
      53.93
     ],
     [
      8.35,
      54.05
     ]
    ]
   }
  },
  {
   "type": "Feature",
   "properties": {
    "port": "London-Tilbury",
    "name": "Tilbury - Thames Estuary",
    "halfWidthKm": 1.2
   },
   "geometry": {
    "type": "LineString",
    "coordinates": [
     [
      0.3472,
      51.4608
     ],
     [
      0.46,
      51.455
     ],
     [
      0.55,
      51.465
     ],
     [
      0.69,
      51.465
     ],
     [
      0.8,
      51.45
     ],
     [
      0.95,
      51.46
     ],
     [
      1.08,
      51.5
     ],
     [
      1.25,
      51.55
     ],
     [
      1.45,
      51.6
     ],
     [
      1.7,
      51.65
     ]
    ]
   }
  },
  {
   "type": "Feature",
   "properties": {
    "port": "Philadelphia",
    "name": "Philadelphia - Delaware River and Bay",
    "halfWidthKm": 1.2
   },
   "geometry": {
    "type": "LineString",
    "coordinates": [
     [
      -75.1361,
      39.9309
     ],
     [
      -75.22,
      39.87
     ],
     [
      -75.34,
      39.8
     ],
     [
      -75.42,
      39.74
     ],
     [
      -75.51,
      39.63
     ],
     [
      -75.53,
      39.52
     ],
     [
      -75.46,
      39.42
     ],
     [
      -75.38,
      39.33
     ],
     [
      -75.27,
      39.19
     ],
     [
      -75.17,
      39.05
     ],
     [
      -75.08,
      38.9
     ],
     [
      -75.03,
      38.8
     ],
     [
      -74.96,
      38.75
     ],
     [
      -74.8,
      38.7
     ]
    ]
   }
  },
  {
   "type": "Feature",
   "properties": {
    "port": "Quebec City",
    "name": "Quebec - St Lawrence",
    "halfWidthKm": 1.5
   },
   "geometry": {
    "type": "LineString",
    "coordinates": [
     [
      -71.2007,
      46.8155
     ],
     [
      -71.05,
      46.86
     ],
     [
      -70.8,
      47.0
     ],
     [
      -70.5,
      47.1
     ],
     [
      -70.1,
      47.26
     ],
     [
      -69.7,
      47.45
     ],
     [
      -69.3,
      47.65
     ],
     [
      -68.8,
      47.9
     ],
     [
      -68.3,
      48.15
     ],
     [
      -67.8,
      48.35
     ],
     [
      -67.2,
      48.55
     ],
     [
      -66.5,
      48.8
     ],
     [
      -65.8,
      49.0
     ],
     [
      -65.0,
      49.2
     ],
     [
      -64.2,
      49.3
     ]
    ]
   }
  },
  {
   "type": "Feature",
   "properties": {
    "port": "Montreal",
    "name": "Montreal - St Lawrence",
    "halfWidthKm": 1.2
   },
   "geometry": {
    "type": "LineString",
    "coordinates": [
     [
      -73.5464,
      45.5067
     ],
     [
      -73.45,
      45.58
     ],
     [
      -73.25,
      45.68
     ],
     [
      -73.05,
      45.78
     ],
     [
      -72.8,
      45.9
     ],
     [
      -72.5,
      46.02
     ],
     [
      -72.1,
      46.16
     ],
     [
      -71.8,
      46.3
     ],
     [
      -71.5,
      46.5
     ],
     [
      -71.3,
      46.68
     ],
     [
      -71.2007,
      46.8155
     ]
    ]
   }
  },
  {
   "type": "Feature",
   "properties": {
    "port": "Saguenay",
    "name": "Saguenay - Saguenay Fjord",
    "halfWidthKm": 1.2
   },
   "geometry": {
    "type": "LineString",
    "coordinates": [
     [
      -71.0639,
      48.4302
     ],
     [
      -71.0,
      48.42
     ],
     [
      -70.9,
      48.4
     ],
     [
      -70.75,
      48.34
     ],
     [
      -70.5,
      48.26
     ],
     [
      -70.25,
      48.22
     ],
     [
      -70.05,
      48.17
     ],
     [
      -69.9,
      48.13
     ],
     [
      -69.7,
      48.1
     ],
     [
      -69.5,
      48.05
     ]
    ]
   }
  },
  {
   "type": "Feature",
   "properties": {
    "port": "Amsterdam",
    "name": "Amsterdam - North Sea Canal",
    "halfWidthKm": 1.2
   },
   "geometry": {
    "type": "LineString",
    "coordinates": [
     [
      4.9302,
      52.3773
     ],
     [
      4.88,
      52.39
     ],
     [
      4.82,
      52.41
     ],
     [
      4.74,
      52.43
     ],
     [
      4.66,
      52.45
     ],
     [
      4.6,
      52.46
     ],
     [
      4.56,
      52.46
     ],
     [
      4.5,
      52.465
     ],
     [
      4.38,
      52.47
     ]
    ]
   }
  },
  {
   "type": "Feature",
   "properties": {
    "port": "Manaus",
    "name": "Manaus - Amazon",
    "halfWidthKm": 1.5
   },
   "geometry": {
    "type": "LineString",
    "coordinates": [
     [
      -60.0238,
      -3.1315
     ],
     [
      -59.8,
      -3.14
     ],
     [
      -59.5,
      -3.1
     ],
     [
      -59.2,
      -3.1
     ],
     [
      -58.9,
      -3.05
     ],
     [
      -58.5,
      -2.9
     ],
     [
      -58.1,
      -2.8
     ],
     [
      -57.6,
      -2.7
     ],
     [
      -57.2,
      -2.65
     ],
     [
      -56.7344,
      -2.6186
     ],
     [
      -56.4478,
      -2.4026
     ],
     [
      -56.0,
      -2.35
     ],
     [
      -55.5,
      -2.35
     ],
     [
      -55.0,
      -2.38
     ],
     [
      -54.7332,
      -2.403
     ],
     [
      -54.3,
      -2.25
     ],
     [
      -53.9,
      -2.2
     ],
     [
      -53.4,
      -2.1
     ],
     [
      -52.9,
      -1.8
     ],
     [
      -52.4,
      -1.6
     ],
     [
      -51.9,
      -1.35
     ],
     [
      -51.4,
      -1.0
     ],
     [
      -51.0,
      -0.7
     ],
     [
      -50.6,
      -0.4
     ],
     [
      -50.2,
      -0.2
     ],
     [
      -49.8,
      -0.1
     ],
     [
      -49.3,
      -0.05
     ],
     [
      -49.0,
      -0.05
     ],
     [
      -48.6,
      -0.05
     ]
    ]
   }
  },
  {
   "type": "Feature",
   "properties": {
    "port": "Santarem",
    "name": "Santarem - Amazon",
    "halfWidthKm": 1.5
   },
   "geometry": {
    "type": "LineString",
    "coordinates": [
     [
      -54.7332,
      -2.403
     ],
     [
      -54.5,
      -2.3
     ],
     [
      -54.3,
      -2.25
     ]
    ]
   }
  },
  {
   "type": "Feature",
   "properties": {
    "port": "Parintins",
    "name": "Parintins - Amazon",
    "halfWidthKm": 1.5
   },
   "geometry": {
    "type": "LineString",
    "coordinates": [
     [
      -56.7344,
      -2.6186
     ],
     [
      -56.6,
      -2.5
     ],
     [
      -56.4478,
      -2.4026
     ]
    ]
   }
  },
  {
   "type": "Feature",
   "properties": {
    "port": "Boca da Valeria",
    "name": "Boca da Valeria - Amazon",
    "halfWidthKm": 1.5
   },
   "geometry": {
    "type": "LineString",
    "coordinates": [
     [
      -56.4478,
      -2.4026
     ],
     [
      -56.2,
      -2.38
     ],
     [
      -56.0,
      -2.35
     ]
    ]
   }
  },
  {
   "type": "Feature",
   "properties": {
    "port": "Macapa",
    "name": "Macapa - Amazon north channel",
    "halfWidthKm": 1.5
   },
   "geometry": {
    "type": "LineString",
    "coordinates": [
     [
      -51.0498,
      0.0328
     ],
     [
      -50.8,
      0.05
     ],
     [
      -50.5,
      0.1
     ],
     [
      -50.2,
      0.2
     ],
     [
      -49.9,
      0.3
     ],
     [
      -49.5,
      0.4
     ],
     [
      -49.0,
      0.5
     ]
    ]
   }
  },
  {
   "type": "Feature",
   "properties": {
    "port": "Belem",
    "name": "Belem - Para River",
    "halfWidthKm": 1.5
   },
   "geometry": {
    "type": "LineString",
    "coordinates": [
     [
      -48.4957,
      -1.4407
     ],
     [
      -48.48,
      -1.3
     ],
     [
      -48.45,
      -1.1
     ],
     [
      -48.4,
      -0.9
     ],
     [
      -48.35,
      -0.7
     ],
     [
      -48.3,
      -0.5
     ],
     [
      -48.25,
      -0.3
     ],
     [
      -48.2,
      -0.1
     ]
    ]
   }
  },
  {
   "type": "Feature",
   "properties": {
    "port": "Ho Chi Minh City (Saigon)",
    "name": "Saigon River",
    "halfWidthKm": 1.2
   },
   "geometry": {
    "type": "LineString",
    "coordinates": [
     [
      106.741,
      10.7548
     ],
     [
      106.78,
      10.73
     ],
     [
      106.8,
      10.68
     ],
     [
      106.78,
      10.63
     ],
     [
      106.76,
      10.58
     ],
     [
      106.8,
      10.52
     ],
     [
      106.86,
      10.47
     ],
     [
      106.92,
      10.42
     ],
     [
      106.98,
      10.38
     ],
     [
      107.05,
      10.33
     ],
     [
      107.15,
      10.25
     ]
    ]
   }
  },
  {
   "type": "Feature",
   "properties": {
    "port": "Busselton",
    "name": "Busselton - Geographe Bay",
    "halfWidthKm": 1.2
   },
   "geometry": {
    "type": "LineString",
    "coordinates": [
     [
      115.603,
      -33.7313
     ],
     [
      115.59,
      -33.65
     ],
     [
      115.56,
      -33.55
     ],
     [
      115.5,
      -33.4
     ]
    ]
   }
  },
  {
   "type": "Feature",
   "properties": {
    "port": "Norfolk",
    "name": "Norfolk - Hampton Roads",
    "halfWidthKm": 1.2
   },
   "geometry": {
    "type": "LineString",
    "coordinates": [
     [
      -76.2956,
      36.8469
     ],
     [
      -76.33,
      36.9
     ],
     [
      -76.3,
      36.95
     ],
     [
      -76.2,
      36.98
     ],
     [
      -76.05,
      37.0
     ],
     [
      -75.9,
      36.95
     ]
    ]
   }
  },
  {
   "type": "Feature",
   "properties": {
    "port": "Djupivogur",
    "name": "Djupivogur approach",
    "halfWidthKm": 1.2
   },
   "geometry": {
    "type": "LineString",
    "coordinates": [
     [
      -14.7593,
      64.6543
     ],
     [
      -14.65,
      64.63
     ],
     [
      -14.5,
      64.6
     ],
     [
      -14.3,
      64.57
     ]
    ]
   }
  },
  {
   "type": "Feature",
   "properties": {
    "port": "Santa Cruz Island",
    "name": "Academy Bay approach",
    "halfWidthKm": 1.2
   },
   "geometry": {
    "type": "LineString",
    "coordinates": [
     [
      -90.3639,
      -0.6288
     ],
     [
      -90.33,
      -0.7
     ],
     [
      -90.3,
      -0.78
     ]
    ]
   }
  },
  {
   "type": "Feature",
   "properties": {
    "port": "Isabela Island",
    "name": "Puerto Villamil approach",
    "halfWidthKm": 1.2
   },
   "geometry": {
    "type": "LineString",
    "coordinates": [
     [
      -91.0892,
      -0.4456
     ],
     [
      -91.12,
      -0.52
     ],
     [
      -91.16,
      -0.6
     ]
    ]
   }
  },
  {
   "type": "Feature",
   "properties": {
    "port": "Espanola Island",
    "name": "Espanola Island approach",
    "kind": "approach",
    "halfWidthKm": 1.0
   },
   "geometry": {
    "type": "LineString",
    "coordinates": [
     [
      -89.6811,
      -1.37799
     ],
     [
      -89.68737,
      -1.40139
     ],
     [
      -89.69203,
      -1.41876
     ]
    ]
   }
  },
  {
   "type": "Feature",
   "properties": {
    "port": "Hiroshima",
    "name": "Hiroshima approach",
    "kind": "approach",
    "halfWidthKm": 1.0
   },
   "geometry": {
    "type": "LineString",
    "coordinates": [
     [
      132.454,
      34.3712
     ],
     [
      132.454,
      34.35884
     ],
     [
      132.454,
      34.34085
     ]
    ]
   }
  },
  {
   "type": "Feature",
   "properties": {
    "port": "Hydra",
    "name": "Hydra approach",
    "kind": "approach",
    "halfWidthKm": 1.0
   },
   "geometry": {
    "type": "LineString",
    "coordinates": [
     [
      23.4664,
      37.3321
     ],
     [
      23.4664,
      37.31974
     ],
     [
      23.4664,
      37.30175
     ]
    ]
   }
  },
  {
   "type": "Feature",
   "properties": {
    "port": "Mobile",
    "name": "Mobile approach",
    "kind": "approach",
    "halfWidthKm": 1.0
   },
   "geometry": {
    "type": "LineString",
    "coordinates": [
     [
      -88.0399,
      30.6954
     ],
     [
      -88.01998,
      30.67827
     ],
     [
      -88.00519,
      30.66555
     ]
    ]
   }
  },
  {
   "type": "Feature",
   "properties": {
    "port": "Newcastle",
    "name": "Newcastle approach",
    "kind": "approach",
    "halfWidthKm": 1.0
   },
   "geometry": {
    "type": "LineString",
    "coordinates": [
     [
      151.781,
      -32.9242
     ],
     [
      151.80091,
      -32.92868
     ],
     [
      151.82161,
      -32.93334
     ]
    ]
   }
  },
  {
   "type": "Feature",
   "properties": {
    "port": "Santos",
    "name": "Santos approach",
    "kind": "approach",
    "halfWidthKm": 1.0
   },
   "geometry": {
    "type": "LineString",
    "coordinates": [
     [
      -46.3021,
      -23.968
     ],
     [
      -46.32506,
      -23.98011
     ],
     [
      -46.34211,
      -23.9891
     ]
    ]
   }
  },
  {
   "type": "Feature",
   "properties": {
    "port": "Zeebrugge",
    "name": "Zeebrugge approach",
    "kind": "approach",
    "halfWidthKm": 1.0
   },
   "geometry": {
    "type": "LineString",
    "coordinates": [
     [
      3.19943,
      51.3442
     ],
     [
      3.2066,
      51.36091
     ],
     [
      3.21405,
      51.37828
     ]
    ]
   }
  },
  {
   "geometry": {
    "coordinates": [
     [
      138.502,
      -34.8412
     ],
     [
      138.50529301274202,
      -34.82903783783784
     ],
     [
      138.51187903822603,
      -34.81957837837838
     ],
     [
      138.51187903822603,
      -34.795254054054055
     ]
    ],
    "type": "LineString"
   },
   "properties": {
    "halfWidthKm": 0.8,
    "kind": "channel",
    "name": "Adelaide channel",
    "port": "Adelaide"
   },
   "type": "Feature"
  },
  {
   "geometry": {
    "coordinates": [
     [
      7.69017,
      62.5694
     ],
     [
      7.616834424464171,
      62.566697297297296
     ],
     [
      7.5493656949712085,
      62.55318378378379
     ],
     [
      7.478963542456812,
      62.55318378378379
     ],
     [
      7.45842958130678,
      62.562643243243244
     ]
    ],
    "type": "LineString"
   },
   "properties": {
    "halfWidthKm": 0.8,
    "kind": "channel",
    "name": "Andalsnes channel",
    "port": "Andalsnes"
   },
   "type": "Feature"
  },
  {
   "geometry": {
    "coordinates": [
     [
      14.7218,
      55.1075
     ],
     [
      14.695814223550963,
      55.1075
     ]
    ],
    "type": "LineString"
   },
   "properties": {
    "halfWidthKm": 0.8,
    "kind": "channel",
    "name": "Bornholm channel",
    "port": "Bornholm"
   },
   "type": "Feature"
  },
  {
   "geometry": {
    "coordinates": [
     [
      -57.9474,
      48.9532
     ],
     [
      -58.02354113470656,
      48.965362162162165
     ],
     [
      -58.12026095446895,
      49.027524324324325
     ]
    ],
    "type": "LineString"
   },
   "properties": {
    "halfWidthKm": 0.8,
    "kind": "channel",
    "name": "Corner Brook channel",
    "port": "Corner Brook"
   },
   "type": "Feature"
  },
  {
   "geometry": {
    "coordinates": [
     [
      170.519,
      -45.8758
     ],
     [
      170.5578198850843,
      -45.8758
     ],
     [
      170.63157766674453,
      -45.82715135135135
     ],
     [
      170.64322363226984,
      -45.823097297297295
     ],
     [
      170.65681059204934,
      -45.823097297297295
     ],
     [
      170.67427954033727,
      -45.81093513513513
     ],
     [
      170.69174848862522,
      -45.804178378378374
     ],
     [
      170.71892240818426,
      -45.78525945945946
     ],
     [
      170.71892240818426,
      -45.7785027027027
     ],
     [
      170.7499783162517,
      -45.756881081081076
     ]
    ],
    "type": "LineString"
   },
   "properties": {
    "halfWidthKm": 0.8,
    "kind": "channel",
    "name": "Dunedin channel",
    "port": "Dunedin"
   },
   "type": "Feature"
  },
  {
   "geometry": {
    "coordinates": [
     [
      7.06707,
      60.4714
     ],
     [
      6.995781436635343,
      60.483562162162166
     ],
     [
      6.823043763867134,
      60.483562162162166
     ],
     [
      6.787399482184805,
      60.472751351351356
     ],
     [
      6.699659711889842,
      60.42950810810811
     ],
     [
      6.600952470308008,
      60.42950810810811
     ],
     [
      6.589984999021138,
      60.434913513513514
     ],
     [
      6.573533792090832,
      60.43761621621622
     ],
     [
      6.488535889617586,
      60.43761621621622
     ],
     [
      6.351442498531707,
      60.37004864864865
     ],
     [
      6.348700630709989,
      60.36734594594595
     ],
     [
      6.348700630709989,
      60.35653513513514
     ],
     [
      6.22257471091098,
      60.29437297297297
     ],
     [
      6.22257471091098,
      60.276805405405405
     ],
     [
      6.151286147546322,
      60.241670270270276
     ],
     [
      6.0772557163599465,
      60.241670270270276
     ],
     [
      6.008709020817006,
      60.20788648648649
     ]
    ],
    "type": "LineString"
   },
   "properties": {
    "halfWidthKm": 0.8,
    "kind": "channel",
    "name": "Eidfjord channel",
    "port": "Eidfjord"
   },
   "type": "Feature"
  },
  {
   "geometry": {
    "coordinates": [
     [
      7.11546,
      60.8626
     ],
     [
      7.11546,
      60.88422162162162
     ],
     [
      7.143213865555431,
      60.90719459459459
     ],
     [
      7.157090798333146,
      60.91395135135135
     ],
     [
      7.157090798333146,
      60.93962702702703
     ],
     [
      7.0821553613334824,
      60.97611351351351
     ],
     [
      7.07105381511131,
      60.99232972972973
     ],
     [
      7.043299949555879,
      61.00584324324324
     ]
    ],
    "type": "LineString"
   },
   "properties": {
    "halfWidthKm": 0.8,
    "kind": "channel",
    "name": "Fl\u00e5m channel",
    "port": "Fl\u00e5m"
   },
   "type": "Feature"
  },
  {
   "geometry": {
    "coordinates": [
     [
      -78.7319,
      26.5276
     ],
     [
      -78.74247254409727,
      26.541113513513512
     ]
    ],
    "type": "LineString"
   },
   "properties": {
    "halfWidthKm": 0.8,
    "kind": "channel",
    "name": "Freeport channel",
    "port": "Freeport"
   },
   "type": "Feature"
  },
  {
   "geometry": {
    "coordinates": [
     [
      7.20634,
      62.1017
     ],
     [
      6.989732662418542,
      62.1017
     ],
     [
      6.960851684074347,
      62.11521351351352
     ],
     [
      6.960851684074347,
      62.15034864864865
     ],
     [
      7.018613640762736,
      62.17872702702703
     ],
     [
      7.018613640762736,
      62.2989972972973
     ],
     [
      6.983956466749703,
      62.31521351351351
     ],
     [
      6.957963586239928,
      62.33142972972973
     ],
     [
      6.957963586239928,
      62.34088918918919
     ],
     [
      6.94641119490225,
      62.35440270270271
     ],
     [
      6.94641119490225,
      62.35845675675676
     ],
     [
      6.9377469013989925,
      62.363862162162164
     ],
     [
      6.9377469013989925,
      62.37061891891892
     ],
     [
      6.934858803564572,
      62.371970270270275
     ],
     [
      6.934858803564572,
      62.40305135135135
     ],
     [
      6.882873042545023,
      62.426024324324324
     ],
     [
      6.8539920642008285,
      62.434132432432435
     ],
     [
      6.773125324837084,
      62.436835135135134
     ],
     [
      6.74424434649289,
      62.45034864864865
     ],
     [
      6.724027661651954,
      62.453051351351355
     ],
     [
      6.594063259103079,
      62.453051351351355
     ],
     [
      6.5767346720965625,
      62.4462945945946
     ],
     [
      6.562294182924465,
      62.444943243243245
     ],
     [
      6.5363013024146905,
      62.434132432432435
     ],
     [
      6.504532226236076,
      62.43278108108108
     ],
     [
      6.48720363922956,
      62.42872702702703
     ],
     [
      6.420777389037912,
      62.42737567567568
     ],
     [
      6.394784508528138,
      62.41791621621622
     ],
     [
      6.363015432349524,
      62.41791621621622
     ]
    ],
    "type": "LineString"
   },
   "properties": {
    "halfWidthKm": 0.8,
    "kind": "channel",
    "name": "Geiranger channel",
    "port": "Geiranger"
   },
   "type": "Feature"
  },
  {
   "geometry": {
    "coordinates": [
     [
      6.86573,
      62.0866
     ],
     [
      6.9321232029526305,
      62.12038378378378
     ],
     [
      6.937896524948512,
      62.12984324324324
     ],
     [
      6.937896524948512,
      62.136599999999994
     ],
     [
      6.949443168940274,
      62.144708108108105
     ],
     [
      7.018723032890845,
      62.17849189189189
     ],
     [
      7.018723032890845,
      62.29876216216216
     ],
     [
      6.9840831009155595,
      62.31497837837838
     ],
     [
      6.9840831009155595,
      62.317681081081076
     ],
     [
      6.958103151934095,
      62.33119459459459
     ],
     [
      6.958103151934095,
      62.34065405405405
     ],
     [
      6.946556507942333,
      62.354167567567565
     ],
     [
      6.946556507942333,
      62.35822162162162
     ],
     [
      6.937896524948512,
      62.36362702702702
     ],
     [
      6.937896524948512,
      62.37038378378378
     ],
     [
      6.9350098639505715,
      62.37173513513513
     ],
     [
      6.9350098639505715,
      62.402816216216216
     ],
     [
      6.8830499659876425,
      62.42578918918919
     ],
     [
      6.857070017006179,
      62.43389729729729
     ],
     [
      6.773356848065905,
      62.4366
     ],
     [
      6.744490238086501,
      62.45011351351351
     ],
     [
      6.727170272098857,
      62.45281621621621
     ],
     [
      6.5914972051956555,
      62.45281621621621
     ],
     [
      6.533763985236846,
      62.43389729729729
     ],
     [
      6.502010714259501,
      62.43254594594594
     ],
     [
      6.484690748271858,
      62.42849189189189
     ],
     [
      6.424070867315108,
      62.42849189189189
     ],
     [
      6.392317596337763,
      62.41768108108108
     ],
     [
      6.363450986358359,
      62.41768108108108
     ]
    ],
    "type": "LineString"
   },
   "properties": {
    "halfWidthKm": 0.8,
    "kind": "channel",
    "name": "Hellesylt channel",
    "port": "Hellesylt"
   },
   "type": "Feature"
  },
  {
   "geometry": {
    "coordinates": [
     [
      121.626,
      23.9864
     ],
     [
      121.63931173749697,
      23.980994594594595
     ],
     [
      121.64226990138519,
      23.97694054054054
     ]
    ],
    "type": "LineString"
   },
   "properties": {
    "halfWidthKm": 0.8,
    "kind": "channel",
    "name": "Hualien channel",
    "port": "Hualien"
   },
   "type": "Feature"
  },
  {
   "geometry": {
    "coordinates": [
     [
      126.619,
      37.4689
     ],
     [
      126.60708157460493,
      37.486467567567566
     ],
     [
      126.58835262041268,
      37.486467567567566
     ],
     [
      126.5798394594162,
      37.47971081081081
     ]
    ],
    "type": "LineString"
   },
   "properties": {
    "halfWidthKm": 0.8,
    "kind": "channel",
    "name": "Incheon channel",
    "port": "Incheon"
   },
   "type": "Feature"
  },
  {
   "geometry": {
    "coordinates": [
     [
      -81.5803,
      30.4077
     ],
     [
      -81.5599305222731,
      30.387429729729728
     ],
     [
      -81.5301597471338,
      30.386078378378375
     ],
     [
      -81.51762468391725,
      30.39013243243243
     ],
     [
      -81.47688572846346,
      30.391483783783784
     ],
     [
      -81.47218507975725,
      30.387429729729728
     ],
     [
      -81.47061819685518,
      30.37932162162162
     ]
    ],
    "type": "LineString"
   },
   "properties": {
    "halfWidthKm": 0.8,
    "kind": "channel",
    "name": "Jacksonville channel",
    "port": "Jacksonville"
   },
   "type": "Feature"
  },
  {
   "geometry": {
    "coordinates": [
     [
      18.7665,
      42.4259
     ],
     [
      18.75917709532539,
      42.439413513513514
     ],
     [
      18.71523966727774,
      42.471845945945944
     ],
     [
      18.69144022708526,
      42.4786027027027
     ],
     [
      18.684117322410653,
      42.471845945945944
     ],
     [
      18.682286596242,
      42.46373783783783
     ],
     [
      18.652994977543564,
      42.44481891891892
     ]
    ],
    "type": "LineString"
   },
   "properties": {
    "halfWidthKm": 0.8,
    "kind": "channel",
    "name": "Kotor channel",
    "port": "Kotor"
   },
   "type": "Feature"
  },
  {
   "geometry": {
    "coordinates": [
     [
      172.718,
      -43.6067
     ],
     [
      172.74412781172117,
      -43.613456756756754
     ]
    ],
    "type": "LineString"
   },
   "properties": {
    "halfWidthKm": 0.8,
    "kind": "channel",
    "name": "Lyttelton (Christchurch) channel",
    "port": "Lyttelton (Christchurch)"
   },
   "type": "Feature"
  },
  {
   "geometry": {
    "coordinates": [
     [
      -106.413,
      23.1971
     ],
     [
      -106.41005957984517,
      23.17953243243243
     ]
    ],
    "type": "LineString"
   },
   "properties": {
    "halfWidthKm": 0.8,
    "kind": "channel",
    "name": "Mazatlan channel",
    "port": "Mazatlan"
   },
   "type": "Feature"
  },
  {
   "geometry": {
    "coordinates": [
     [
      -3.52296,
      36.7319
     ],
     [
      -3.521273851750088,
      36.71838648648649
     ]
    ],
    "type": "LineString"
   },
   "properties": {
    "halfWidthKm": 0.8,
    "kind": "channel",
    "name": "Motril channel",
    "port": "Motril"
   },
   "type": "Feature"
  },
  {
   "geometry": {
    "coordinates": [
     [
      17.4218,
      68.4335
     ],
     [
      16.568889674834693,
      68.43485135135134
     ]
    ],
    "type": "LineString"
   },
   "properties": {
    "halfWidthKm": 0.8,
    "kind": "channel",
    "name": "Narvik channel",
    "port": "Narvik"
   },
   "type": "Feature"
  },
  {
   "geometry": {
    "coordinates": [
     [
      -90.06,
      29.9444
     ],
     [
      -89.9757852115472,
      29.9444
     ],
     [
      -89.94459454915729,
      29.917372972972974
     ],
     [
      -89.92899921796231,
      29.8916972972973
     ],
     [
      -89.93055875108182,
      29.888994594594596
     ],
     [
      -89.95083268163526,
      29.888994594594596
     ],
     [
      -89.96642801283024,
      29.875481081081084
     ],
     [
      -90.01165447329562,
      29.786291891891892
     ],
     [
      -90.01165447329562,
      29.766021621621622
     ],
     [
      -90.00697587393714,
      29.76196756756757
     ]
    ],
    "type": "LineString"
   },
   "properties": {
    "halfWidthKm": 0.8,
    "kind": "channel",
    "name": "New Orleans channel",
    "port": "New Orleans"
   },
   "type": "Feature"
  },
  {
   "geometry": {
    "coordinates": [
     [
      -1.44998,
      54.9965
     ],
     [
      -1.4099313376788754,
      55.01677027027027
     ],
     [
      -1.4099313376788754,
      55.02082432432432
     ]
    ],
    "type": "LineString"
   },
   "properties": {
    "halfWidthKm": 0.8,
    "kind": "channel",
    "name": "Newcastle upon Tyne channel",
    "port": "Newcastle upon Tyne"
   },
   "type": "Feature"
  },
  {
   "geometry": {
    "coordinates": [
     [
      139.036,
      37.9162
     ],
     [
      139.0188706605244,
      37.920254054054055
     ]
    ],
    "type": "LineString"
   },
   "properties": {
    "halfWidthKm": 0.8,
    "kind": "channel",
    "name": "Niigata channel",
    "port": "Niigata"
   },
   "type": "Feature"
  },
  {
   "geometry": {
    "coordinates": [
     [
      5.9909,
      61.9089
     ],
     [
      5.503021470802835,
      61.9089
     ]
    ],
    "type": "LineString"
   },
   "properties": {
    "halfWidthKm": 0.8,
    "kind": "channel",
    "name": "Nordfjordeid channel",
    "port": "Nordfjordeid"
   },
   "type": "Feature"
  },
  {
   "geometry": {
    "coordinates": [
     [
      6.80751,
      61.8402
     ],
     [
      6.790329340828871,
      61.85101081081081
     ],
     [
      6.7931927840240585,
      61.852362162162166
     ],
     [
      6.7588314656818005,
      61.86452432432433
     ],
     [
      6.690108828997284,
      61.873983783783785
     ],
     [
      6.595615203556074,
      61.873983783783785
     ],
     [
      6.578434544384944,
      61.86587567567568
     ],
     [
      6.578434544384944,
      61.859118918918924
     ],
     [
      6.524029123676368,
      61.833443243243245
     ],
     [
      6.509711907700428,
      61.830740540540546
     ],
     [
      6.360812861550642,
      61.82938918918919
     ],
     [
      6.337905315989136,
      61.8402
     ],
     [
      6.297817111256501,
      61.848308108108114
     ],
     [
      6.154644951497092,
      61.848308108108114
     ],
     [
      6.137464292325962,
      61.84560540540541
     ],
     [
      5.985701802980988,
      61.84695675675676
     ],
     [
      5.974248030200235,
      61.85101081081081
     ],
     [
      5.9398867118579775,
      61.852362162162166
     ],
     [
      5.916979166296471,
      61.859118918918924
     ],
     [
      5.768080120146686,
      61.85641621621622
     ],
     [
      5.705084369852545,
      61.88614594594595
     ],
     [
      5.65067894914397,
      61.888848648648654
     ],
     [
      5.622044517192088,
      61.89830810810811
     ],
     [
      5.550458437312383,
      61.899659459459464
     ],
     [
      5.53900466453163,
      61.90506486486487
     ],
     [
      5.501779902994183,
      61.90776756756757
     ]
    ],
    "type": "LineString"
   },
   "properties": {
    "halfWidthKm": 0.8,
    "kind": "channel",
    "name": "Olden channel",
    "port": "Olden"
   },
   "type": "Feature"
  },
  {
   "geometry": {
    "coordinates": [
     [
      140.995,
      43.1907
     ],
     [
      141.01168152556335,
      43.193402702702706
     ],
     [
      141.0209490397652,
      43.20015945945946
     ]
    ],
    "type": "LineString"
   },
   "properties": {
    "halfWidthKm": 0.8,
    "kind": "channel",
    "name": "Otaru (Sapporo) channel",
    "port": "Otaru (Sapporo)"
   },
   "type": "Feature"
  },
  {
   "geometry": {
    "coordinates": [
     [
      -80.6069,
      28.4036
     ],
     [
      -80.57924673991138,
      28.4036
     ]
    ],
    "type": "LineString"
   },
   "properties": {
    "halfWidthKm": 0.8,
    "kind": "channel",
    "name": "Port Canaveral channel",
    "port": "Port Canaveral"
   },
   "type": "Feature"
  },
  {
   "geometry": {
    "coordinates": [
     [
      -8.53154,
      37.1283
     ],
     [
      -8.540014697521249,
      37.11613783783784
     ]
    ],
    "type": "LineString"
   },
   "properties": {
    "halfWidthKm": 0.8,
    "kind": "channel",
    "name": "Portimao channel",
    "port": "Portimao"
   },
   "type": "Feature"
  },
  {
   "geometry": {
    "coordinates": [
     [
      -122.677,
      45.526
     ],
     [
      -122.67507111152783,
      45.56383783783784
     ],
     [
      -122.72329332333221,
      45.59762162162163
     ],
     [
      -122.74258220805397,
      45.621945945945946
     ],
     [
      -122.74451109652614,
      45.79356756756757
     ],
     [
      -122.76572886972008,
      45.82194594594595
     ],
     [
      -122.76572886972008,
      45.89627027027027
     ],
     [
      -122.7792310890253,
      45.919243243243244
     ],
     [
      -122.79273330833053,
      45.98275675675676
     ],
     [
      -122.83709774319057,
      46.01654054054055
     ],
     [
      -122.84481329707927,
      46.04627027027028
     ],
     [
      -122.9277555013828,
      46.104378378378385
     ],
     [
      -122.96633327082631,
      46.1232972972973
     ],
     [
      -122.98755104402025,
      46.13005405405406
     ],
     [
      -123.006839928742,
      46.13005405405406
     ],
     [
      -123.03191547888028,
      46.13951351351351
     ],
     [
      -123.0454176981855,
      46.13951351351351
     ],
     [
      -123.07049324832379,
      46.15708108108108
     ],
     [
      -123.09363990998989,
      46.166540540540545
     ],
     [
      -123.15150656415516,
      46.1705945945946
     ],
     [
      -123.17658211429342,
      46.18275675675676
     ],
     [
      -123.193942110543,
      46.18275675675676
     ],
     [
      -123.23059099151435,
      46.1705945945946
     ],
     [
      -123.26723987248567,
      46.151675675675676
     ],
     [
      -123.30967541887354,
      46.15032432432433
     ],
     [
      -123.32317763817876,
      46.15302702702703
     ],
     [
      -123.35982651915009,
      46.17870270270271
     ]
    ],
    "type": "LineString"
   },
   "properties": {
    "halfWidthKm": 0.8,
    "kind": "channel",
    "name": "Portland OR channel",
    "port": "Portland OR"
   },
   "type": "Feature"
  },
  {
   "geometry": {
    "coordinates": [
     [
      4.48792,
      51.9049
     ],
     [
      4.264508559286781,
      51.9049
     ],
     [
      4.225083010925624,
      51.92922432432432
     ]
    ],
    "type": "LineString"
   },
   "properties": {
    "halfWidthKm": 0.8,
    "kind": "channel",
    "name": "Rotterdam channel",
    "port": "Rotterdam"
   },
   "type": "Feature"
  },
  {
   "geometry": {
    "coordinates": [
     [
      -122.332,
      47.6062
     ],
     [
      -122.37809914713607,
      47.6062
     ],
     [
      -122.42219398352711,
      47.57647027027027
     ],
     [
      -122.42219398352711,
      47.479172972972975
     ],
     [
      -122.41818536203702,
      47.47647027027027
     ]
    ],
    "type": "LineString"
   },
   "properties": {
    "halfWidthKm": 0.8,
    "kind": "channel",
    "name": "Seattle channel",
    "port": "Seattle"
   },
   "type": "Feature"
  },
  {
   "geometry": {
    "coordinates": [
     [
      -135.32,
      59.4565
     ],
     [
      -135.34127306746635,
      59.42677027027027
     ],
     [
      -135.34393220089964,
      59.39163513513513
     ],
     [
      -135.35456873463284,
      59.37947297297297
     ],
     [
      -135.36254613493273,
      59.363256756756755
     ],
     [
      -135.365205268366,
      59.326770270270266
     ],
     [
      -135.38116006896578,
      59.31866216216216
     ]
    ],
    "type": "LineString"
   },
   "properties": {
    "halfWidthKm": 0.8,
    "kind": "channel",
    "name": "Skagway channel",
    "port": "Skagway"
   },
   "type": "Feature"
  },
  {
   "geometry": {
    "coordinates": [
     [
      7.59822,
      61.4859
     ],
     [
      7.496311338877596,
      61.43725135135135
     ],
     [
      7.48498815430844,
      61.418332432432436
     ],
     [
      7.436864619889527,
      61.39535945945946
     ],
     [
      7.4312030276049486,
      61.388602702702705
     ],
     [
      7.414218250751214,
      61.380494594594595
     ],
     [
      7.411387454608926,
      61.37373783783784
     ],
     [
      7.391571881612903,
      61.35752162162162
     ],
     [
      7.391571881612903,
      61.3386027027027
     ],
     [
      7.312309589628811,
      61.30076486486487
     ],
     [
      7.312309589628811,
      61.27508918918919
     ],
     [
      7.332125162624833,
      61.26562972972973
     ],
     [
      7.337786754909412,
      61.25752162162162
     ],
     [
      7.3406175510517,
      61.24400810810811
     ],
     [
      7.3434483471939895,
      61.24265675675676
     ],
     [
      7.3434483471939895,
      61.222386486486485
     ],
     [
      7.346279143336279,
      61.22103513513514
     ],
     [
      7.349109939478567,
      61.20617027027027
     ],
     [
      7.39723347389748,
      61.181845945945945
     ],
     [
      7.366094716332301,
      61.16698108108108
     ],
     [
      7.346279143336279,
      61.16427837837838
     ],
     [
      7.329294366482545,
      61.15617027027027
     ],
     [
      7.201908540079539,
      61.15617027027027
     ],
     [
      7.17076978251436,
      61.141305405405404
     ],
     [
      7.133969432664603,
      61.141305405405404
     ],
     [
      7.099999878957135,
      61.13454864864865
     ],
     [
      7.0631995291073775,
      61.1331972972973
     ]
    ],
    "type": "LineString"
   },
   "properties": {
    "halfWidthKm": 0.8,
    "kind": "channel",
    "name": "Skjolden channel",
    "port": "Skjolden"
   },
   "type": "Feature"
  },
  {
   "geometry": {
    "coordinates": [
     [
      18.0782,
      59.3303
     ],
     [
      18.115289510470944,
      59.31948918918919
     ],
     [
      18.162976023933584,
      59.31948918918919
     ],
     [
      18.18946853141283,
      59.32624594594595
     ],
     [
      18.237155044875472,
      59.34786756756757
     ],
     [
      18.250401298615095,
      59.34921891891892
     ],
     [
      18.274244555346417,
      59.36002972972973
     ],
     [
      18.28219230759019,
      59.36002972972973
     ],
     [
      18.36431908077585,
      59.401921621621625
     ]
    ],
    "type": "LineString"
   },
   "properties": {
    "halfWidthKm": 0.8,
    "kind": "channel",
    "name": "Stockholm channel",
    "port": "Stockholm"
   },
   "type": "Feature"
  },
  {
   "geometry": {
    "coordinates": [
     [
      32.3507,
      30.7603
     ],
     [
      32.333401484545284,
      30.7603
     ]
    ],
    "type": "LineString"
   },
   "properties": {
    "halfWidthKm": 0.8,
    "kind": "channel",
    "name": "Suez Canal channel",
    "port": "Suez Canal"
   },
   "type": "Feature"
  },
  {
   "geometry": {
    "coordinates": [
     [
      18.9586,
      69.6472
     ],
     [
      18.9741417150818,
      69.66071351351351
     ],
     [
      18.9741417150818,
      69.66476756756757
     ],
     [
      19.020766860327203,
      69.68098378378379
     ]
    ],
    "type": "LineString"
   },
   "properties": {
    "halfWidthKm": 0.8,
    "kind": "channel",
    "name": "Troms\u00f8 channel",
    "port": "Troms\u00f8"
   },
   "type": "Feature"
  },
  {
   "geometry": {
    "coordinates": [
     [
      6.91518,
      60.5678
     ],
     [
      6.917930040274792,
      60.50293513513513
     ],
     [
      6.884929556977297,
      60.48671891891892
     ],
     [
      6.876679436152923,
      60.48401621621621
     ],
     [
      6.82442867093189,
      60.48401621621621
     ],
     [
      6.796928268183978,
      60.47590810810811
     ],
     [
      6.700676858566285,
      60.42996216216216
     ],
     [
      6.59892536839901,
      60.42996216216216
     ],
     [
      6.585175167025055,
      60.43671891891892
     ],
     [
      6.4889237574073615,
      60.43671891891892
     ],
     [
      6.34867170339301,
      60.367799999999995
     ],
     [
      6.34867170339301,
      60.35563783783783
     ],
     [
      6.222169850752614,
      60.29347567567567
     ],
     [
      6.222169850752614,
      60.27725945945946
     ],
     [
      6.150668803608042,
      60.24212432432432
     ],
     [
      6.073667675913888,
      60.24212432432432
     ],
     [
      6.007666709318899,
      60.20969189189189
     ]
    ],
    "type": "LineString"
   },
   "properties": {
    "halfWidthKm": 0.8,
    "kind": "channel",
    "name": "Ulvik channel",
    "port": "Ulvik"
   },
   "type": "Feature"
  },
  {
   "type": "Feature",
   "properties": {
    "name": "Abidjan approach",
    "port": "Abidjan",
    "kind": "harbour",
    "halfWidthKm": 1.2
   },
   "geometry": {
    "type": "LineString",
    "coordinates": [
     [
      -4.03082,
      5.30131
     ],
     [
      -4.0326,
      5.23486
     ]
    ]
   }
  },
  {
   "type": "Feature",
   "properties": {
    "name": "Ain Sokhna (Cairo) approach",
    "port": "Ain Sokhna (Cairo)",
    "kind": "harbour",
    "halfWidthKm": 1.2
   },
   "geometry": {
    "type": "LineString",
    "coordinates": [
     [
      32.3489,
      29.6505
     ],
     [
      32.38047,
      29.67044
     ]
    ]
   }
  },
  {
   "type": "Feature",
   "properties": {
    "name": "Akita approach",
    "port": "Akita",
    "kind": "harbour",
    "halfWidthKm": 1.2
   },
   "geometry": {
    "type": "LineString",
    "coordinates": [
     [
      140.085,
      39.7287
     ],
     [
      140.03399,
      39.75545
     ]
    ]
   }
  },
  {
   "type": "Feature",
   "properties": {
    "name": "Aqaba approach",
    "port": "Aqaba",
    "kind": "harbour",
    "halfWidthKm": 1.2
   },
   "geometry": {
    "type": "LineString",
    "coordinates": [
     [
      34.9957,
      29.5861
     ],
     [
      34.9762,
      29.55673
     ]
    ]
   }
  },
  {
   "type": "Feature",
   "properties": {
    "name": "Baltimore approach",
    "port": "Baltimore",
    "kind": "harbour",
    "halfWidthKm": 1.2
   },
   "geometry": {
    "type": "LineString",
    "coordinates": [
     [
      -76.6122,
      39.2904
     ],
     [
      -76.59866,
      39.25814
     ]
    ]
   }
  },
  {
   "type": "Feature",
   "properties": {
    "name": "Baltra Island approach",
    "port": "Baltra Island",
    "kind": "harbour",
    "halfWidthKm": 1.2
   },
   "geometry": {
    "type": "LineString",
    "coordinates": [
     [
      -90.2747,
      -0.45814
     ],
     [
      -90.30214,
      -0.47807
     ]
    ]
   }
  },
  {
   "type": "Feature",
   "properties": {
    "name": "Bandar Seri Begawan approach",
    "port": "Bandar Seri Begawan",
    "kind": "harbour",
    "halfWidthKm": 1.2
   },
   "geometry": {
    "type": "LineString",
    "coordinates": [
     [
      114.947,
      4.88937
     ],
     [
      115.02729,
      4.93693
     ]
    ]
   }
  },
  {
   "type": "Feature",
   "properties": {
    "name": "Celebration Key approach",
    "port": "Celebration Key",
    "kind": "harbour",
    "halfWidthKm": 1.2
   },
   "geometry": {
    "type": "LineString",
    "coordinates": [
     [
      -78.2684,
      26.6614
     ],
     [
      -78.30307,
      26.6752
     ]
    ]
   }
  },
  {
   "type": "Feature",
   "properties": {
    "name": "Elephant Island approach",
    "port": "Elephant Island",
    "kind": "harbour",
    "halfWidthKm": 1.2
   },
   "geometry": {
    "type": "LineString",
    "coordinates": [
     [
      -55.12,
      -61.14
     ],
     [
      -55.03872,
      -61.16675
     ]
    ]
   }
  },
  {
   "type": "Feature",
   "properties": {
    "name": "Floreana Island approach",
    "port": "Floreana Island",
    "kind": "harbour",
    "halfWidthKm": 1.2
   },
   "geometry": {
    "type": "LineString",
    "coordinates": [
     [
      -90.4282,
      -1.29018
     ],
     [
      -90.37482,
      -1.32982
     ]
    ]
   }
  },
  {
   "type": "Feature",
   "properties": {
    "name": "Gothenburg \u2014 G\u00f6ta \u00e4lv",
    "port": "Gothenburg",
    "kind": "river",
    "halfWidthKm": 1.2
   },
   "geometry": {
    "type": "LineString",
    "coordinates": [
     [
      11.9635,
      57.7123
     ],
     [
      11.853,
      57.8007
     ],
     [
      11.8104,
      57.7814
     ]
    ]
   }
  },
  {
   "type": "Feature",
   "properties": {
    "name": "Greencastle-Londonderry approach",
    "port": "Greencastle-Londonderry",
    "kind": "harbour",
    "halfWidthKm": 1.2
   },
   "geometry": {
    "type": "LineString",
    "coordinates": [
     [
      -7.31959,
      55.008
     ],
     [
      -7.18685,
      55.06154
     ]
    ]
   }
  },
  {
   "type": "Feature",
   "properties": {
    "name": "Guaymas approach",
    "port": "Guaymas",
    "kind": "harbour",
    "halfWidthKm": 1.2
   },
   "geometry": {
    "type": "LineString",
    "coordinates": [
     [
      -110.899,
      27.9186
     ],
     [
      -110.85058,
      27.9392
     ]
    ]
   }
  },
  {
   "type": "Feature",
   "properties": {
    "name": "Hilo approach",
    "port": "Hilo",
    "kind": "harbour",
    "halfWidthKm": 1.2
   },
   "geometry": {
    "type": "LineString",
    "coordinates": [
     [
      -155.083,
      19.7158
     ],
     [
      -155.05889,
      19.74101
     ]
    ]
   }
  },
  {
   "type": "Feature",
   "properties": {
    "name": "Hubbard Glacier approach",
    "port": "Hubbard Glacier",
    "kind": "harbour",
    "halfWidthKm": 1.2
   },
   "geometry": {
    "type": "LineString",
    "coordinates": [
     [
      -139.54,
      60.0443
     ],
     [
      -139.5471,
      60.01057
     ]
    ]
   }
  },
  {
   "type": "Feature",
   "properties": {
    "name": "Kagoshima approach",
    "port": "Kagoshima",
    "kind": "harbour",
    "halfWidthKm": 1.2
   },
   "geometry": {
    "type": "LineString",
    "coordinates": [
     [
      130.553,
      31.5909
     ],
     [
      130.58521,
      31.61084
     ]
    ]
   }
  },
  {
   "type": "Feature",
   "properties": {
    "name": "Kiel approach",
    "port": "Kiel",
    "kind": "harbour",
    "halfWidthKm": 1.2
   },
   "geometry": {
    "type": "LineString",
    "coordinates": [
     [
      10.1444,
      54.3217
     ],
     [
      10.17414,
      54.3659
     ]
    ]
   }
  },
  {
   "type": "Feature",
   "properties": {
    "name": "Kiritimati-Christmas Island approach",
    "port": "Kiritimati-Christmas Island",
    "kind": "harbour",
    "halfWidthKm": 1.2
   },
   "geometry": {
    "type": "LineString",
    "coordinates": [
     [
      -157.4,
      1.86667
     ],
     [
      -157.45543,
      1.90342
     ]
    ]
   }
  },
  {
   "type": "Feature",
   "properties": {
    "name": "Kochi approach",
    "port": "Kochi",
    "kind": "harbour",
    "halfWidthKm": 1.2
   },
   "geometry": {
    "type": "LineString",
    "coordinates": [
     [
      133.559,
      33.5248
     ],
     [
      133.56325,
      33.49107
     ]
    ]
   }
  },
  {
   "type": "Feature",
   "properties": {
    "name": "Kochi (Cochin) approach",
    "port": "Kochi (Cochin)",
    "kind": "harbour",
    "halfWidthKm": 1.2
   },
   "geometry": {
    "type": "LineString",
    "coordinates": [
     [
      76.2709,
      9.98643
     ],
     [
      76.23721,
      9.97938
     ]
    ]
   }
  },
  {
   "type": "Feature",
   "properties": {
    "name": "Komodo Island Indonesia approach",
    "port": "Komodo Island Indonesia",
    "kind": "harbour",
    "halfWidthKm": 1.2
   },
   "geometry": {
    "type": "LineString",
    "coordinates": [
     [
      119.465,
      -8.54303
     ],
     [
      119.50467,
      -8.56978
     ]
    ]
   }
  },
  {
   "type": "Feature",
   "properties": {
    "name": "Kushiro City approach",
    "port": "Kushiro City",
    "kind": "harbour",
    "halfWidthKm": 1.2
   },
   "geometry": {
    "type": "LineString",
    "coordinates": [
     [
      144.421,
      43.0035
     ],
     [
      144.37564,
      42.99645
     ]
    ]
   }
  },
  {
   "type": "Feature",
   "properties": {
    "name": "Lyngdal approach",
    "port": "Lyngdal",
    "kind": "harbour",
    "halfWidthKm": 1.2
   },
   "geometry": {
    "type": "LineString",
    "coordinates": [
     [
      7.0669,
      58.1069
     ],
     [
      7.01496,
      58.12684
     ]
    ]
   }
  },
  {
   "type": "Feature",
   "properties": {
    "name": "Moreton Island approach",
    "port": "Moreton Island",
    "kind": "harbour",
    "halfWidthKm": 1.2
   },
   "geometry": {
    "type": "LineString",
    "coordinates": [
     [
      153.394,
      -27.1926
     ],
     [
      153.42485,
      -27.21254
     ]
    ]
   }
  },
  {
   "type": "Feature",
   "properties": {
    "name": "Norfolk Island approach",
    "port": "Norfolk Island",
    "kind": "harbour",
    "halfWidthKm": 1.2
   },
   "geometry": {
    "type": "LineString",
    "coordinates": [
     [
      167.948,
      -29.0328
     ],
     [
      167.91662,
      -29.05274
     ]
    ]
   }
  },
  {
   "type": "Feature",
   "properties": {
    "name": "Olbia approach",
    "port": "Olbia",
    "kind": "harbour",
    "halfWidthKm": 1.2
   },
   "geometry": {
    "type": "LineString",
    "coordinates": [
     [
      9.51567,
      40.9281
     ],
     [
      9.59579,
      40.95557
     ]
    ]
   }
  },
  {
   "type": "Feature",
   "properties": {
    "name": "Panama Canal \u2014 Panama Canal",
    "port": "Panama Canal",
    "kind": "river",
    "halfWidthKm": 1.2
   },
   "geometry": {
    "type": "LineString",
    "coordinates": [
     [
      -79.6681,
      9.07889
     ],
     [
      -79.6748,
      9.089
     ],
     [
      -79.6216,
      9.021
     ],
     [
      -79.5875,
      8.9943
     ]
    ]
   }
  },
  {
   "type": "Feature",
   "properties": {
    "name": "Rarotonga Island approach",
    "port": "Rarotonga Island",
    "kind": "harbour",
    "halfWidthKm": 1.2
   },
   "geometry": {
    "type": "LineString",
    "coordinates": [
     [
      -159.776,
      -21.2292
     ],
     [
      -159.78724,
      -21.26146
     ]
    ]
   }
  },
  {
   "type": "Feature",
   "properties": {
    "name": "Riga approach",
    "port": "Riga",
    "kind": "harbour",
    "halfWidthKm": 1.2
   },
   "geometry": {
    "type": "LineString",
    "coordinates": [
     [
      24.0995,
      56.9616
     ],
     [
      23.9678,
      57.02081
     ]
    ]
   }
  },
  {
   "type": "Feature",
   "properties": {
    "name": "San Cristobal Island approach",
    "port": "San Cristobal Island",
    "kind": "harbour",
    "halfWidthKm": 1.2
   },
   "geometry": {
    "type": "LineString",
    "coordinates": [
     [
      -89.4248,
      -0.82049
     ],
     [
      -89.35982,
      -0.83454
     ]
    ]
   }
  },
  {
   "type": "Feature",
   "properties": {
    "name": "Seydisfjordur approach",
    "port": "Seydisfjordur",
    "kind": "harbour",
    "halfWidthKm": 1.2
   },
   "geometry": {
    "type": "LineString",
    "coordinates": [
     [
      -14.0037,
      65.2652
     ],
     [
      -13.90994,
      65.29195
     ]
    ]
   }
  },
  {
   "type": "Feature",
   "properties": {
    "name": "Southampton approach",
    "port": "Southampton",
    "kind": "harbour",
    "halfWidthKm": 1.2
   },
   "geometry": {
    "type": "LineString",
    "coordinates": [
     [
      -1.41027,
      50.8938
     ],
     [
      -1.37429,
      50.86859
     ]
    ]
   }
  },
  {
   "type": "Feature",
   "properties": {
    "name": "Sydney approach",
    "port": "Sydney",
    "kind": "harbour",
    "halfWidthKm": 1.2
   },
   "geometry": {
    "type": "LineString",
    "coordinates": [
     [
      151.211,
      -33.858
     ],
     [
      151.30267,
      -33.91154
     ]
    ]
   }
  },
  {
   "type": "Feature",
   "properties": {
    "name": "Venice approach",
    "port": "Venice",
    "kind": "harbour",
    "halfWidthKm": 1.2
   },
   "geometry": {
    "type": "LineString",
    "coordinates": [
     [
      12.2797,
      45.4622
     ],
     [
      12.36014,
      45.38818
     ]
    ]
   }
  },
  {
   "type": "Feature",
   "properties": {
    "name": "Waterford approach",
    "port": "Waterford",
    "kind": "harbour",
    "halfWidthKm": 1.2
   },
   "geometry": {
    "type": "LineString",
    "coordinates": [
     [
      -7.11198,
      52.2638
     ],
     [
      -7.12942,
      52.17135
     ]
    ]
   }
  }
 ]
}